STARLINK-32035          
1 60107C 24117S   26106.83381944  .00031264  00000+0  10535-2 0  1065
2 60107  53.1575 219.8878 0000991  80.0256  53.1580 15.30182328    11
STARLINK-32042          
1 60108C 24117T   26106.83034722  .00033583  00000+0  11316-2 0  1069
2 60108  53.1582 219.8006 0001034  77.9020  88.4934 15.30182558    15
STARLINK-32040          
1 60109C 24117U   26106.88104167 -.00004568  00000+0 -15396-3 0  1062
2 60109  53.1599 219.3747 0001063  86.3364  98.3522 15.30192643    17
STARLINK-32001          
1 60110C 24117V   26106.86229167  .00012906  00000+0  43497-3 0  1066
2 60110  53.1590 219.5479 0001099  80.9997 313.8176 15.30186192    17
STARLINK-32015          
1 60111C 24117W   26106.82756944  .00033202  00000+0  11182-2 0  1068
2 60111  53.1597 219.6394 0000888  82.3890 155.8660 15.30200175    15
STARLINK-32024          
1 60112C 24117X   26106.88243056 -.00002493  00000+0 -84006-4 0  1067
2 60112  53.1583 219.5227 0000831  73.2427  37.6716 15.30201953    12
STARLINK-11201 [DTC]    
1 60113C 24118A   26106.86923611  .00019367  00000+0  15950-3 0  1066
2 60113  53.1579  33.3652 0001277  91.6143 337.7287 15.69704264    18
STARLINK-11198 [DTC]    
1 60114C 24118B   26106.90812500 -.00010861  00000+0 -89456-4 0  1061
2 60114  53.1577  33.1169 0001128  87.5536 229.4076 15.69717376    14
STARLINK-11112 [DTC]    
1 60115C 24118C   26106.86020833  .00017702  00000+0  14579-3 0  1069
2 60115  53.1575  33.2955 0001197  95.4792 338.2813 15.69704750    15
STARLINK-11210 [DTC]    
1 60116C 24118D   26106.91368056 -.00013244  00000+0 -10907-3 0  1068
2 60116  53.1577  32.9756 0001143  87.4546 316.3891 15.69720339    16
STARLINK-11203 [DTC]    
1 60117C 24118E   26106.84701389  .00029832  00000+0  24574-3 0  1064
2 60117  53.1579  33.2472 0001116 110.3819 304.1805 15.69694212    17
STARLINK-11177 [DTC]    
1 60118C 24118F   26106.89006944 -.00008989  00000+0 -74039-4 0  1069
2 60118  53.1578  32.9784 0001108  88.9128 236.9086 15.69716669    17
STARLINK-11127 [DTC]    
1 60119C 24118G   26106.91368056 -.00011616  00000+0 -95668-4 0  1060
2 60119  53.1575  32.8050 0001200 103.5318  23.5306 15.69718544    17
STARLINK-11164 [DTC]    
1 60120C 24118H   26106.86437500  .00013364  00000+0  11006-3 0  1060
2 60120  53.1574  32.9907 0001236  90.9099 145.1089 15.69707365    12
STARLINK-11119 [DTC]    
1 60121C 24118J   26106.87201389  .00016378  00000+0  13488-3 0  1060
2 60121  53.1578  32.7821 0000990  89.7178 272.7006 15.69707118    12
STARLINK-11157 [DTC]    
1 60122C 24118K   26106.85951389  .00029420  00000+0  24233-3 0  1063
2 60122  53.1573  32.9005 0001089  88.6261 175.3869 15.69696617    11
STARLINK-11162 [DTC]    
1 60123C 24118L   26106.85187500  .00032540  00000+0  26804-3 0  1063
2 60123  53.1583  32.8244 0001227  94.8603 181.4363 15.69692854    16
STARLINK-11161 [DTC]    
1 60124C 24118M   26106.91229167 -.00006582  00000+0 -54229-4 0  1069
2 60124  53.1581  33.2057 0001114  85.5786 199.4870 15.69707532    18
STARLINK-11160 [DTC]    
1 60125C 24118N   26106.84631944  .00036062  00000+0  29699-3 0  1068
2 60125  53.1574  33.0205 0001152  95.7124  65.9455 15.69696624    10
STARLINK-31846          
1 60126C 24118P   26106.91506944 -.00030878  00000+0 -10408-2 0  1066
2 60126  53.1603 209.1354 0000824  76.7080 126.7773 15.30205463    14
STARLINK-31840          
1 60127C 24118Q   26106.90395833 -.00016118  00000+0 -54335-3 0  1068
2 60127  53.1602 209.2584 0001185  77.2604  30.0822 15.30193009    13
STARLINK-31813          
1 60128C 24118R   26106.87201389 -.00014692  00000+0 -49529-3 0  1061
2 60128  53.1603 209.3709 0001153  74.6321 234.0904 15.30191178    19
STARLINK-31845          
1 60129C 24118S   26106.85812500 -.00008863  00000+0 -29886-3 0  1060
2 60129  53.1599 207.2692 0001278  82.7561 164.0120 15.30180725    14
STARLINK-31838          
1 60130C 24118T   26106.84840278  .00002868  00000+0  96673-4 0  1060
2 60130  53.1592 209.5807 0001007  84.4726  41.7705 15.30191024    18
STARLINK-31785          
1 60131C 24118U   26106.82687500  .00020088  00000+0  67747-3 0  1069
2 60131  53.1599 209.4983 0001232  71.5752  29.1272 15.30160946    14
STARLINK-31792          
1 60132C 24118V   26106.89145833 -.00023932  00000+0 -80671-3 0  1069
2 60132  53.1592 206.8905 0001207  83.0644  80.4807 15.30199314    18
STARLINK-32043          
1 60135C 24120A   26106.85048611 -.00024008  00000+0 -80916-3 0  1064
2 60135  53.1579 142.5988 0001213  76.9877 143.5559 15.30203609    17
STARLINK-32112          
1 60136C 24120B   26106.83104167 -.00023386  00000+0 -78834-3 0  1066
2 60136  53.1578 143.0387 0001153  83.6840 215.1872 15.30197717    10
STARLINK-32050          
1 60137C 24120C   26106.83590278 -.00041205  00000+0 -13888-2 0  1066
2 60137  53.1568 143.0836 0001040  82.6312 208.1307 15.30211347    18
STARLINK-32025          
1 60138C 24120D   26106.81368056 -.00041241  00000+0 -13900-2 0  1067
2 60138  53.1564 142.5844 0001142  85.2710  25.4738 15.30210821    16
STARLINK-31694          
1 60140C 24120F   26106.86576389 -.00021479  00000+0 -72395-3 0  1060
2 60140  53.1579 142.8529 0001044  82.9426  58.9428 15.30200964    11
STARLINK-32036          
1 60141C 24120G   26106.87062500 -.00016660  00000+0 -56161-3 0  1066
2 60141  53.1581 142.8189 0001081  81.5869  92.9129 15.30193419    16
STARLINK-32031          
1 60142C 24120H   26106.89006944  .00023503  00000+0  79278-3 0  1065
2 60142  53.1586 142.6578 0001113  83.8515 232.7576 15.30153647    10
STARLINK-32027          
1 60143C 24120J   26106.90951389  .00023847  00000+0  80383-3 0  1060
2 60143  53.1564 142.0535 0001046  92.4304 209.8317 15.30176280    17
STARLINK-32033          
1 60144C 24120K   26106.84701389 -.00031127  00000+0 -10492-2 0  1062
2 60144  53.1567 142.5275 0001175  87.8266 160.1084 15.30203997    11
STARLINK-32029          
1 60145C 24120L   26106.90604167  .00005514  00000+0  18588-3 0  1060
2 60145  53.1588 142.4782 0000855  78.5846  18.3767 15.30182334    15
STARLINK-32127          
1 60146C 24120M   26106.89284722  .00025874  00000+0  87206-3 0  1064
2 60146  53.1564 142.1505 0001114  94.8498 127.0757 15.30177743    18
STARLINK-32019          
1 60147C 24120N   26106.86298611  .00007398  00000+0  24945-3 0  1066
2 60147  53.1564 142.3814 0001020  95.6480 275.1236 15.30174427    13
STARLINK-32021          
1 60148C 24120P   26106.89493056  .00021483  00000+0  72417-3 0  1068
2 60148  53.1582 132.3613 0001230  86.2639  59.4894 15.30176547    13
STARLINK-32022          
1 60149C 24120Q   26106.84631944 -.00002937  00000+0 -98966-4 0  1067
2 60149  53.1582 142.6508 0001322  78.6055 101.4787 15.30196702    14
STARLINK-32014          
1 60150C 24120R   26106.82756944 -.00011996  00000+0 -40411-3 0  1061
2 60150  53.1570 142.6336 0001093 115.5617  13.4982 15.30214447    18
STARLINK-32004          
1 60151C 24120S   26106.86923611  .00003139  00000+0  10579-3 0  1063
2 60151  53.1574 142.4741 0001206  80.6371 260.7010 15.30190879    17
STARLINK-32147          
1 60152C 24120T   26106.84006944 -.00027586  00000+0 -92973-3 0  1065
2 60152  53.1576 143.0048 0001126  83.6554 259.1537 15.30205662    17
STARLINK-32131          
1 60153C 24120U   26106.90256944  .00029728  00000+0  10018-2 0  1067
2 60153  53.1588 142.5273 0001276  88.3718 331.9776 15.30181312    14
STARLINK-32145          
1 60154C 24120V   26106.84423611 -.00015295  00000+0 -51555-3 0  1066
2 60154  53.1564 142.5090 0001193  89.1475 155.1177 15.30195748    12
STARLINK-32137          
1 60155C 24120W   26106.82826389 -.00031370  00000+0 -10574-2 0  1061
2 60155  53.1586 142.7687 0001294  79.3298 343.8321 15.30204817    12
STARLINK-32048          
1 60156C 24120X   26106.82895833 -.00033614  00000+0 -11329-2 0  1064
2 60156  53.1588 142.8001 0001220  77.3884 332.1437 15.30209188    19
STARLINK-32129          
1 60157C 24120Y   26106.91368056  .00036911  00000+0  12435-2 0  1067
2 60157  53.1567 142.7284 0001106 105.4609 248.1320 15.30186031    18
STARLINK-11168 [DTC]    
1 60183C 24124A   26106.91506944 -.00055207  00000+0 -45491-3 0  1060
2 60183  53.1567 332.7387 0001155  83.5839 106.7569 15.69728888    15
STARLINK-11187 [DTC]    
1 60184C 24124B   26106.91159722 -.00030411  00000+0 -25058-3 0  1066
2 60184  53.1564 332.6993 0001114  81.6791 116.7675 15.69717300    12
STARLINK-11180 [DTC]    
1 60185C 24124C   26106.84701389 -.00042002  00000+0 -34608-3 0  1061
2 60185  53.1564 332.9608 0001071  83.7294 137.2867 15.69723647    14
STARLINK-11197 [DTC]    
1 60186C 24124D   26106.84979167 -.00081246  00000+0 -66921-3 0  1069
2 60186  53.1565 332.8903 0000974  80.6167 183.8313 15.69751619    12
STARLINK-11194 [DTC]    
1 60187C 24124E   26106.83937500 -.00036749  00000+0 -30277-3 0  1067
2 60187  53.1564 332.8845 0000952  88.4863 144.8009 15.69723569    14
STARLINK-11189 [DTC]    
1 60188C 24124F   26106.90326389  .00024783  00000+0  20400-3 0  1063
2 60188  53.1565 333.2477 0001168  94.4668 167.1249 15.69714037    16
STARLINK-11183 [DTC]    
1 60189C 24124G   26106.88451389 -.00061865  00000+0 -50964-3 0  1062
2 60189  53.1567 333.2828 0001076  81.4416 101.9706 15.69738833    18
STARLINK-11179 [DTC]    
1 60190C 24124H   26106.84979167 -.00060261  00000+0 -49634-3 0  1060
2 60190  53.1568 333.3966 0000956  78.6099 296.2091 15.69742156    14
STARLINK-11175 [DTC]    
1 60191C 24124J   26106.86854167 -.00160180  00000+0 -13177-2 0  1068
2 60191  53.1565 333.2478 0000963  94.3871  54.1256 15.69822447    16
STARLINK-11173 [DTC]    
1 60192C 24124K   26106.86506944 -.00051464  00000+0 -42401-3 0  1063
2 60192  53.1566 333.2078 0001020  95.3374  61.3491 15.69730654    17
STARLINK-11172 [DTC]    
1 60193C 24124L   26106.88104167 -.00059521  00000+0 -49040-3 0  1065
2 60193  53.1566 333.0721 0001074  91.6902 183.0430 15.69733852    14
